start=new Date('2023-02-28T00:00:00.000Z').valueOf();
sats=[{"OBJECT_NAME":"STARLINK-3647","MEAN_MOTION_DOT":"0.00017866","MEAN_MOTION_DDOT":"0.0000000000000","OBJECT_ID":"2022-025AQ","REF_FRAME":"TEME","CENTER_NAME":"EARTH","MEAN_ELEMENT_THEORY":"SGP4","BSTAR":"0.00113660000000","NORAD_CAT_ID":"51994","OBJECT_TYPE":"PAYLOAD","REV_AT_EPOCH":"5386","ARG_OF_PERICENTER":"75.4422","INCLINATION":"53.2146","CLASSIFICATION_TYPE":"U","LAUNCH_DATE":"2022-03-09","PERIAPSIS":"538.780","GP_ID":"227160230","RCS_SIZE":"LARGE","ECCENTRICITY":"0.00012270","EPOCH":"2023-02-27T02:59:25.132416","ELEMENT_SET_NO":"999","TIME_SYSTEM":"UTC","TLE_LINE2":"2 51994  53.2146 306.6907 0001227  75.4422 284.6706 15.08878238 53863","MEAN_MOTION":"15.08878238","APOAPSIS":"540.477","COUNTRY_CODE":"US","EPHEMERIS_TYPE":"0","PERIOD":"95.435","TLE_LINE1":"1 51994U 22025AQ  23058.12459644  .00017866  00000-0  11366-2 0  9999","RA_OF_ASC_NODE":"306.6907","SEMIMAJOR_AXIS":"6917.764","MEAN_ANOMALY":"284.6706","SITE":"AFETR","FILE":"3846396","DECAY_DATE":null},{"APOAPSIS":"541.260","EPHEMERIS_TYPE":"0","COUNTRY_CODE":"US","MEAN_MOTION":"15.08866350","TLE_LINE2":"2 51995  53.2153 303.0665 0002306  78.2164 281.9087 15.08866350 53973","ELEMENT_SET_NO":"999","EPOCH":"2023-02-27T22:19:56.645472","TIME_SYSTEM":"UTC","ECCENTRICITY":"0.00023060","DECAY_DATE":null,"FILE":"3846812","SITE":"AFETR","MEAN_ANOMALY":"281.9087","RA_OF_ASC_NODE":"303.0665","SEMIMAJOR_AXIS":"6917.800","TLE_LINE1":"1 51995U 22025AR  23058.93051673  .00009825  00000-0  63408-3 0  9990","PERIOD":"95.436","NORAD_CAT_ID":"51995","BSTAR":"0.00063408000000","CENTER_NAME":"EARTH","MEAN_ELEMENT_THEORY":"SGP4","REF_FRAME":"TEME","MEAN_MOTION_DDOT":"0.0000000000000","OBJECT_ID":"2022-025AR","MEAN_MOTION_DOT":"0.00009825","OBJECT_NAME":"STARLINK-3636","GP_ID":"227196173","RCS_SIZE":"LARGE","LAUNCH_DATE":"2022-03-09","PERIAPSIS":"538.070","CLASSIFICATION_TYPE":"U","INCLINATION":"53.2153","ARG_OF_PERICENTER":"78.2164","OBJECT_TYPE":"PAYLOAD","REV_AT_EPOCH":"5397"},{"MEAN_MOTION_DOT":"0.00027156","MEAN_MOTION_DDOT":"0.0000000000000","OBJECT_ID":"2022-025AS","OBJECT_NAME":"STARLINK-3538","NORAD_CAT_ID":"51996","CENTER_NAME":"EARTH","MEAN_ELEMENT_THEORY":"SGP4","REF_FRAME":"TEME","BSTAR":"0.00171550000000","CLASSIFICATION_TYPE":"U","OBJECT_TYPE":"PAYLOAD","REV_AT_EPOCH":"5394","ARG_OF_PERICENTER":"78.3940","INCLINATION":"53.2146","GP_ID":"227195924","RCS_SIZE":"LARGE","PERIAPSIS":"538.549","LAUNCH_DATE":"2022-03-09","ELEMENT_SET_NO":"999","EPOCH":"2023-02-27T15:37:12.137952","TIME_SYSTEM":"UTC","ECCENTRICITY":"0.00015140","APOAPSIS":"540.644","COUNTRY_CODE":"US","EPHEMERIS_TYPE":"0","TLE_LINE2":"2 51996  53.2146 304.3283 0001514  78.3940 281.7223 15.08888705 53944","MEAN_MOTION":"15.08888705","TLE_LINE1":"1 51996U 22025AS  23058.65083493  .00027156  00000-0  17155-2 0  9999","RA_OF_ASC_NODE":"304.3283","SEMIMAJOR_AXIS":"6917.732","PERIOD":"95.434","FILE":"3846812","DECAY_DATE":null,"MEAN_ANOMALY":"281.7223","SITE":"AFETR"},{"ECCENTRICITY":"0.00011730","ELEMENT_SET_NO":"999","EPOCH":"2023-02-27T01:34:38.650368","TIME_SYSTEM":"UTC","MEAN_MOTION":"15.08865012","TLE_LINE2":"2 51997  53.2176 306.9532 0001173  92.7188 267.3938 15.08865012 53846","APOAPSIS":"540.480","COUNTRY_CODE":"US","EPHEMERIS_TYPE":"0","PERIOD":"95.436","RA_OF_ASC_NODE":"306.9532","SEMIMAJOR_AXIS":"6917.804","TLE_LINE1":"1 51997U 22025AT  23058.06572512  .00015109  00000-0  96472-3 0  9995","SITE":"AFETR","MEAN_ANOMALY":"267.3938","DECAY_DATE":null,"FILE":"3846396","OBJECT_NAME":"STARLINK-3589","MEAN_MOTION_DDOT":"0.0000000000000","OBJECT_ID":"2022-025AT","MEAN_MOTION_DOT":"0.00015109","BSTAR":"0.00096472000000","CENTER_NAME":"EARTH","MEAN_ELEMENT_THEORY":"SGP4","REF_FRAME":"TEME","NORAD_CAT_ID":"51997","ARG_OF_PERICENTER":"92.7188","INCLINATION":"53.2176","OBJECT_TYPE":"PAYLOAD","REV_AT_EPOCH":"5384","CLASSIFICATION_TYPE":"U","LAUNCH_DATE":"2022-03-09","PERIAPSIS":"538.857","GP_ID":"227159980","RCS_SIZE":"LARGE"},{"CLASSIFICATION_TYPE":"U","INCLINATION":"53.2150","ARG_OF_PERICENTER":"76.1103","OBJECT_TYPE":"PAYLOAD","REV_AT_EPOCH":"5399","GP_ID":"227194923","RCS_SIZE":"MEDIUM","LAUNCH_DATE":"2022-03-09","PERIAPSIS":"539.103","MEAN_MOTION_DDOT":"0.0000000000000","OBJECT_ID":"2022-025AU","MEAN_MOTION_DOT":"0.00033464","OBJECT_NAME":"STARLINK-3618","NORAD_CAT_ID":"51998","BSTAR":"0.00210830000000","REF_FRAME":"TEME","MEAN_ELEMENT_THEORY":"SGP4","CENTER_NAME":"EARTH","RA_OF_ASC_NODE":"302.9709","SEMIMAJOR_AXIS":"6917.750","TLE_LINE1":"1 51998U 22025AU  23058.95259310  .00033464  00000-0  21083-2 0  9991","PERIOD":"95.435","DECAY_DATE":null,"FILE":"3846812","SITE":"AFETR","MEAN_ANOMALY":"283.9971","ELEMENT_SET_NO":"999","EPOCH":"2023-02-27T22:51:44.043840","TIME_SYSTEM":"UTC","ECCENTRICITY":"0.00007410","APOAPSIS":"540.128","EPHEMERIS_TYPE":"0","COUNTRY_CODE":"US","MEAN_MOTION":"15.08882496","TLE_LINE2":"2 51998  53.2150 302.9709 0000741  76.1103 283.9971 15.08882496 53996"},{"NORAD_CAT_ID":"51999","BSTAR":"0.00068229000000","REF_FRAME":"TEME","MEAN_ELEMENT_THEORY":"SGP4","CENTER_NAME":"EARTH","OBJECT_ID":"2022-025AV","MEAN_MOTION_DDOT":"0.0000000000000","MEAN_MOTION_DOT":"0.00010596","OBJECT_NAME":"STARLINK-3667","RCS_SIZE":"LARGE","GP_ID":"227195674","PERIAPSIS":"538.852","LAUNCH_DATE":"2022-03-09","CLASSIFICATION_TYPE":"U","ARG_OF_PERICENTER":"84.4807","INCLINATION":"53.2144","REV_AT_EPOCH":"5394","OBJECT_TYPE":"PAYLOAD","EPHEMERIS_TYPE":"0","COUNTRY_CODE":"US","APOAPSIS":"540.470","MEAN_MOTION":"15.08867629","TLE_LINE2":"2 51999  53.2144 304.3255 0001169  84.4807 275.6318 15.08867629 53949","TIME_SYSTEM":"UTC","ELEMENT_SET_NO":"999","EPOCH":"2023-02-27T15:31:54.367392","ECCENTRICITY":"0.00011690","DECAY_DATE":null,"FILE":"3846812","SITE":"AFETR","MEAN_ANOMALY":"275.6318","SEMIMAJOR_AXIS":"6917.796","RA_OF_ASC_NODE":"304.3255","TLE_LINE1":"1 51999U 22025AV  23058.64715703  .00010596  00000-0  68229-3 0  9996","PERIOD":"95.436"},{"RCS_SIZE":"LARGE","GP_ID":"227196424","LAUNCH_DATE":"2022-03-09","PERIAPSIS":"538.549","CLASSIFICATION_TYPE":"U","OBJECT_TYPE":"PAYLOAD","REV_AT_EPOCH":"5399","INCLINATION":"53.2149","ARG_OF_PERICENTER":"75.1543","NORAD_CAT_ID":"52000","MEAN_ELEMENT_THEORY":"SGP4","CENTER_NAME":"EARTH","REF_FRAME":"TEME","BSTAR":"0.00195250000000","MEAN_MOTION_DOT":"0.00030955","MEAN_MOTION_DDOT":"0.0000000000000","OBJECT_ID":"2022-025AW","OBJECT_NAME":"STARLINK-3653","FILE":"3846812","DECAY_DATE":null,"MEAN_ANOMALY":"284.9622","SITE":"AFETR","TLE_LINE1":"1 52000U 22025AW  23058.94619012  .00030955  00000-0  19525-2 0  9994","RA_OF_ASC_NODE":"303.0011","SEMIMAJOR_AXIS":"6917.764","PERIOD":"95.435","APOAPSIS":"540.709","COUNTRY_CODE":"US","EPHEMERIS_TYPE":"0","TLE_LINE2":"2 52000  53.2149 303.0011 0001561  75.1543 284.9622 15.08878173 53996","MEAN_MOTION":"15.08878173","ELEMENT_SET_NO":"999","EPOCH":"2023-02-27T22:42:30.826368","TIME_SYSTEM":"UTC","ECCENTRICITY":"0.00015610"},{"PERIOD":"95.435","TLE_LINE1":"1 52001U 22025AX  23058.94891556  .00034897  00000-0  21978-2 0  9994","RA_OF_ASC_NODE":"302.9885","SEMIMAJOR_AXIS":"6917.773","MEAN_ANOMALY":"289.1620","SITE":"AFETR","FILE":"3846812","DECAY_DATE":null,"ECCENTRICITY":"0.00014870","ELEMENT_SET_NO":"999","EPOCH":"2023-02-27T22:46:26.304384","TIME_SYSTEM":"UTC","TLE_LINE2":"2 52001  53.2148 302.9885 0001487  70.9534 289.1620 15.08875077 53998","MEAN_MOTION":"15.08875077","APOAPSIS":"540.667","COUNTRY_CODE":"US","EPHEMERIS_TYPE":"0","OBJECT_TYPE":"PAYLOAD","REV_AT_EPOCH":"5399","INCLINATION":"53.2148","ARG_OF_PERICENTER":"70.9534","CLASSIFICATION_TYPE":"U","LAUNCH_DATE":"2022-03-09","PERIAPSIS":"538.610","RCS_SIZE":"LARGE","GP_ID":"227195173","OBJECT_NAME":"STARLINK-3659","MEAN_MOTION_DOT":"0.00034897","MEAN_MOTION_DDOT":"0.0000000000000","OBJECT_ID":"2022-025AX","CENTER_NAME":"EARTH","REF_FRAME":"TEME","MEAN_ELEMENT_THEORY":"SGP4","BSTAR":"0.00219780000000","NORAD_CAT_ID":"52001"},{"ECCENTRICITY":"0.00009730","TIME_SYSTEM":"UTC","ELEMENT_SET_NO":"999","EPOCH":"2023-02-27T22:41:08.400768","MEAN_MOTION":"15.08875508","TLE_LINE2":"2 52002  53.2145 303.0041 0000973  69.9772 290.1325 15.08875508 53996","COUNTRY_CODE":"US","EPHEMERIS_TYPE":"0","APOAPSIS":"540.310","PERIOD":"95.435","SEMIMAJOR_AXIS":"6917.772","RA_OF_ASC_NODE":"303.0041","TLE_LINE1":"1 52002U 22025AY  23058.94523612  .00016528  00000-0  10531-2 0  9994","SITE":"AFETR","MEAN_ANOMALY":"290.1325","DECAY_DATE":null,"FILE":"3846812","OBJECT_NAME":"STARLINK-3668","OBJECT_ID":"2022-025AY","MEAN_MOTION_DDOT":"0.0000000000000","MEAN_MOTION_DOT":"0.00016528","BSTAR":"0.00105310000000","MEAN_ELEMENT_THEORY":"SGP4","REF_FRAME":"TEME","CENTER_NAME":"EARTH","NORAD_CAT_ID":"52002","INCLINATION":"53.2145","ARG_OF_PERICENTER":"69.9772","REV_AT_EPOCH":"5399","OBJECT_TYPE":"PAYLOAD","CLASSIFICATION_TYPE":"U","PERIAPSIS":"538.964","LAUNCH_DATE":"2022-03-09","RCS_SIZE":"LARGE","GP_ID":"227195423"},{"FILE":"3846812","DECAY_DATE":null,"MEAN_ANOMALY":"285.5630","SITE":"AFETR","TLE_LINE1":"1 52003U 22025AZ  23058.94155932  .00013910  00000-0  88962-3 0  9997","RA_OF_ASC_NODE":"303.0218","SEMIMAJOR_AXIS":"6917.790","PERIOD":"95.436","APOAPSIS":"540.551","COUNTRY_CODE":"US","EPHEMERIS_TYPE":"0","TLE_LINE2":"2 52003  53.2144 303.0218 0001295  74.5505 285.5630 15.08869572 53997","MEAN_MOTION":"15.08869572","ELEMENT_SET_NO":"999","EPOCH":"2023-02-27T22:35:50.725248","TIME_SYSTEM":"UTC","ECCENTRICITY":"0.00012950","GP_ID":"227196174","RCS_SIZE":"LARGE","PERIAPSIS":"538.759","LAUNCH_DATE":"2022-03-09","CLASSIFICATION_TYPE":"U","OBJECT_TYPE":"PAYLOAD","REV_AT_EPOCH":"5399","ARG_OF_PERICENTER":"74.5505","INCLINATION":"53.2144","NORAD_CAT_ID":"52003","REF_FRAME":"TEME","MEAN_ELEMENT_THEORY":"SGP4","CENTER_NAME":"EARTH","BSTAR":"0.00088962000000","MEAN_MOTION_DOT":"0.00013910","MEAN_MOTION_DDOT":"0.0000000000000","OBJECT_ID":"2022-025AZ","OBJECT_NAME":"STARLINK-3654"}];
